{
  "norad_id": 67411,
  "name": "STARLINK-36503",
  "history": [
    {
      "epoch": "2026-03-28T19:42:55.027008Z",
      "apogee_km": 483.77423463392824,
      "perigee_km": 482.23459450049904,
      "latitude_deg": -1.1603640439641224e-05,
      "longitude_deg": 7.862994534713506,
      "height_km": 482.81241967859137,
      "semi_major_axis_km": 6861.141414567213,
      "eccentricity": 0.0001122,
      "inclination_deg": 43.0017,
      "raan_deg": 129.8287,
      "arg_perigee_deg": 267.6657,
      "mean_anomaly_deg": 92.4066,
      "mean_motion_rev_day": 15.27594922
    },
    {
      "epoch": "2026-03-30T03:06:02.460096Z",
      "apogee_km": 483.97004279395605,
      "perigee_km": 482.10490112549905,
      "latitude_deg": 5.1830506923457716e-05,
      "longitude_deg": -111.59316092864758,
      "height_km": 482.7470618616172,
      "semi_major_axis_km": 6861.174471959727,
      "eccentricity": 0.00013592,
      "inclination_deg": 43.0006,
      "raan_deg": 122.4424,
      "arg_perigee_deg": 274.1289,
      "mean_anomaly_deg": 85.9408,
      "mean_motion_rev_day": 15.27583882
    },
    {
      "epoch": "2026-03-30T12:30:58.773312Z",
      "apogee_km": 484.0442225155193,
      "perigee_km": 481.96255252194624,
      "latitude_deg": 1.1672805867709328e-05,
      "longitude_deg": 104.56937159975891,
      "height_km": 482.7567263316435,
      "semi_major_axis_km": 6861.1403875187325,
      "eccentricity": 0.0001517,
      "inclination_deg": 43.0015,
      "raan_deg": 120.2263,
      "arg_perigee_deg": 271.3007,
      "mean_anomaly_deg": 88.7671,
      "mean_motion_rev_day": 15.27595265
    },
    {
      "epoch": "2026-03-31T18:19:57.590400Z",
      "apogee_km": 483.736164297914,
      "perigee_km": 482.3625547887332,
      "latitude_deg": -1.1112203359561188e-05,
      "longitude_deg": 9.08296423341476,
      "height_km": 482.68928412269065,
      "semi_major_axis_km": 6861.186359543323,
      "eccentricity": 0.0001001,
      "inclination_deg": 43.0007,
      "raan_deg": 113.2095,
      "arg_perigee_deg": 281.4651,
      "mean_anomaly_deg": 78.6088,
      "mean_motion_rev_day": 15.27579912
    }
  ]
}